[{"OBJECT_NAME":"PROTOMETHEE","OBJECT_ID":"2023-174BT","EPOCH":"2026-03-09T23:28:08.029344","MEAN_MOTION":15.30202663,"ECCENTRICITY":0.00088339,"INCLINATION":97.3826,"RA_OF_ASC_NODE":147.9552,"ARG_OF_PERICENTER":148.5993,"MEAN_ANOMALY":211.5776,"EPHEMERIS_TYPE":0,"CLASSIFICATION_TYPE":"U","NORAD_CAT_ID":58321,"ELEMENT_SET_NO":999,"REV_AT_EPOCH":12979,"BSTAR":0.00015715731,"MEAN_MOTION_DOT":4.52e-5,"MEAN_MOTION_DDOT":0},{"OBJECT_NAME":"STARLINK-31017","OBJECT_ID":"2023-191H","EPOCH":"2026-03-09T17:15:53.896320","MEAN_MOTION":15.27582052,"ECCENTRICITY":0.00015781,"INCLINATION":43.0039,"RA_OF_ASC_NODE":230.9942,"ARG_OF_PERICENTER":261.0061,"MEAN_ANOMALY":99.0612,"EPHEMERIS_TYPE":0,"CLASSIFICATION_TYPE":"U","NORAD_CAT_ID":58515,"ELEMENT_SET_NO":999,"REV_AT_EPOCH":12818,"BSTAR":2.2251561e-5,"MEAN_MOTION_DOT":3.5e-6,"MEAN_MOTION_DDOT":0}]
